     2.10           N: GPS NAV DATA                         RINEX VERSION / TYPE
teqc  2013Mar15     gpsops              20140503 00:38:10UTCPGM / RUN BY / DATE
Linux 2.4.21-27.ELsmp|Opteron|gcc -static|Linux x86_64|=+   COMMENT
GLPS                                    MARKER NAME         COMMENT
42005M002                               MARKER NUMBER       COMMENT
-33801.4662 -6377516.5323 -82154.3508                       COMMENT
                                                            COMMENT
This data is provided as a public service by NASA/JPL.      COMMENT
No warranty is expressed or implied regarding suitability   COMMENT
for use.  For further information, contact:                 COMMENT
Dave Stowers, NASA/JPL m/s 238-600                          COMMENT
4800 Oak Grove Drive, Pasadena CA 91109 USA                 COMMENT
                                                            END OF HEADER
24 14  5  2 10  0  0.0-2.771336585283D-05-6.821210263297D-13 0.000000000000D+00
    6.800000000000D+01 3.812500000000D+01 4.761626912302D-09-6.596727234568D-01
    1.868233084679D-06 2.061651670374D-03 2.004206180573D-06 5.153735130310D+03
    4.680000000000D+05 5.960464477539D-08 1.930173692465D+00 2.980232238770D-08
    9.567059494772D-01 3.395000000000D+02 3.367934259180D-01-8.457852303497D-09
   -4.821629411647D-11 0.000000000000D+00 1.790000000000D+03 0.000000000000D+00
    2.000000000000D+00 0.000000000000D+00 2.793967723846D-09 6.800000000000D+01
    4.608000000000D+05 4.000000000000D+00
25 14  5  2 10  0  0.0 2.308050170541D-05 7.958078640513D-13 0.000000000000D+00
    3.600000000000D+01-1.059687500000D+02 3.891947829535D-09-2.689783148288D+00
   -5.446374416351D-06 3.553432296030D-03 6.675720214844D-06 5.153623598099D+03
    4.680000000000D+05-5.215406417847D-08 2.984971701904D+00-1.117587089539D-08
    9.763516358218D-01 2.599375000000D+02 6.545833733621D-01-7.812825435539D-09
   -1.450060400836D-10 0.000000000000D+00 1.790000000000D+03 0.000000000000D+00
    2.000000000000D+00 0.000000000000D+00 5.122274160385D-09 3.600000000000D+01
    4.608000000000D+05 4.000000000000D+00
26 14  5  2 10  0  0.0 9.127613157034D-05-1.159605744760D-11 0.000000000000D+00
    5.200000000000D+01 9.578125000000D+01 4.213746948045D-09 4.442229160104D-02
    5.260109901428D-06 2.142385486513D-02 8.989125490189D-06 5.153695489883D+03
    4.680000000000D+05-2.756714820862D-07 9.907491781658D-01 1.881271600723D-07
    9.753327777479D-01 2.162812500000D+02 1.281118041377D+00-8.238557454701D-09
   -2.464388365953D-11 0.000000000000D+00 1.790000000000D+03 0.000000000000D+00
    2.000000000000D+00 0.000000000000D+00-6.053596735001D-09 5.200000000000D+01
    4.608000000000D+05 4.000000000000D+00
29 14  5  2 10  0  0.0 5.296138115227D-04 2.728484105319D-12 0.000000000000D+00
    7.300000000000D+01-1.590625000000D+01 4.081955744127D-09-2.232351256745D+00
   -7.059425115585D-07 1.632800674997D-03 1.005828380585D-05 5.153718790054D+03
    4.680000000000D+05 3.725290298462D-09-2.196788458474D+00 9.313225746155D-09
    9.691167978674D-01 1.896562500000D+02-8.937150566708D-01-7.738179469092D-09
    5.443083869148D-10 0.000000000000D+00 1.790000000000D+03 0.000000000000D+00
    2.000000000000D+00 0.000000000000D+00-9.778887033463D-09 7.300000000000D+01
    4.608000000000D+05 4.000000000000D+00
22 14  5  2 10  0  0.0 2.310960553586D-04 2.842170943040D-12 0.000000000000D+00
    4.200000000000D+01-1.531250000000D+01 5.456298705314D-09 2.317239683751D+00
   -8.642673492432D-07 7.140374160372D-03 8.758157491684D-06 5.153728904724D+03
    4.680000000000D+05-2.235174179077D-08-1.603417858047D-01-1.229345798492D-07
    9.240264749659D-01 1.919375000000D+02-2.062690303879D+00-8.276773332260D-09
   -4.928776731906D-10 0.000000000000D+00 1.790000000000D+03 0.000000000000D+00
    2.000000000000D+00 0.000000000000D+00-1.722946763039D-08 4.200000000000D+01
    4.632300000000D+05 4.000000000000D+00
24 14  5  2  9 59 44.0-2.770451828837D-05-6.821210263297D-13 0.000000000000D+00
    0.000000000000D+00 3.812500000000D+01 4.761626912302D-09-6.620050274180D-01
    1.868233084679D-06 2.061641658656D-03 2.004206180573D-06 5.153735120773D+03
    4.679840000000D+05 5.960464477539D-08 1.930173851923D+00 2.980232238770D-08
    9.567059509401D-01 3.395000000000D+02 3.367920873480D-01-8.457852303497D-09
   -4.857345185067D-11 0.000000000000D+00 1.790000000000D+03 0.000000000000D+00
    2.000000000000D+00 0.000000000000D+00 2.793967723846D-09 0.000000000000D+00
    4.635300000000D+05 4.000000000000D+00
14 14  5  2 10  0  0.0 1.765340566635D-04-3.410605131648D-12 0.000000000000D+00
    3.400000000000D+01 9.881250000000D+01 4.149101398156D-09 1.193218397924D+00
    5.161389708519D-06 7.417002576403D-03 8.834525942802D-06 5.153660163879D+03
    4.680000000000D+05-1.564621925354D-07 9.677165819200D-01 2.048909664154D-08
    9.705283324121D-01 2.185625000000D+02-2.001508394127D+00-7.977475151004D-09
   -4.357324357192D-11 0.000000000000D+00 1.790000000000D+03 0.000000000000D+00
    2.000000000000D+00 0.000000000000D+00-9.313225746155D-09 3.400000000000D+01
    4.656000000000D+05 4.000000000000D+00
21 14  5  2  9 59 44.0-3.587095998228D-04-2.273736754432D-12 0.000000000000D+00
    2.500000000000D+01 9.875000000000D+00 5.540230772850D-09-2.438842901425D+00
    2.142041921616D-07 2.145628503058D-02 4.719942808151D-06 5.153759140015D+03
    4.679840000000D+05 3.576278686523D-07-1.207665100167D+00 3.725290298462D-09
    9.319086190603D-01 2.669062500000D+02-2.031173708801D+00-8.266772915703D-09
    4.271606500985D-10 0.000000000000D+00 1.790000000000D+03 0.000000000000D+00
    2.000000000000D+00 0.000000000000D+00-1.117587089539D-08 2.500000000000D+01
    4.663800000000D+05 4.000000000000D+00
 2 14  5  2 12  0  0.0 4.930165596306D-04 2.160049916711D-12 0.000000000000D+00
    8.800000000000D+01 1.215625000000D+01 5.468084910542D-09 8.014068642355D-01
    5.364418029785D-07 1.349795074202D-02 5.727633833885D-06 5.153588571548D+03
    4.752000000000D+05-1.322478055954D-07-1.225247878915D+00 1.415610313416D-07
    9.389720322741D-01 2.583437500000D+02-2.432948154948D+00-8.580357406327D-09
    1.614352958566D-10 0.000000000000D+00 1.790000000000D+03 0.000000000000D+00
    2.000000000000D+00 0.000000000000D+00-2.048909664154D-08 8.800000000000D+01
    4.680000000000D+05 4.000000000000D+00
12 14  5  2 12  0  0.0 2.023191191256D-04 2.387423592154D-12 0.000000000000D+00
    8.100000000000D+01-1.065312500000D+02 3.810158708404D-09-8.683116071095D-01
   -5.602836608887D-06 5.119420238771D-03 6.429851055145D-06 5.153636142731D+03
    4.752000000000D+05 2.123415470123D-07 3.027035983148D+00-1.862645149231D-09
    9.876515939618D-01 2.704375000000D+02 4.109919506416D-01-7.838897950136D-09
   -3.096557555480D-10 0.000000000000D+00 1.790000000000D+03 0.000000000000D+00
    2.000000000000D+00 0.000000000000D+00-1.210719347000D-08 8.100000000000D+01
    4.680000000000D+05 4.000000000000D+00
14 14  5  2 12  0  0.0 1.765098422766D-04-3.410605131648D-12 0.000000000000D+00
    3.500000000000D+01 9.771875000000D+01 4.144101189877D-09 2.243539067585D+00
    4.930421710014D-06 7.417561020702D-03 9.002164006233D-06 5.153658157349D+03
    4.752000000000D+05 1.117587089539D-08 9.676595398182D-01-1.583248376846D-07
    9.705292247921D-01 2.089062500000D+02-2.001642240891D+00-7.751394305258D-09
    9.286101089098D-12 0.000000000000D+00 1.790000000000D+03 0.000000000000D+00
    2.000000000000D+00 0.000000000000D+00-9.313225746155D-09 3.500000000000D+01
    4.680000000000D+05 4.000000000000D+00
15 14  5  2 12  0  0.0-1.771845854819D-04-2.160049916711D-12 0.000000000000D+00
    6.500000000000D+01 9.165625000000D+01 4.962706716655D-09 1.632275053848D+00
    5.034729838371D-06 6.245840573683D-03 1.014769077301D-05 5.153691534042D+03
    4.752000000000D+05-1.490116119385D-08 8.564720018967D-01 1.396983861923D-07
    9.371945370686D-01 1.709062500000D+02 2.758612377450D-01-8.256058183677D-09
   -1.267909956396D-10 0.000000000000D+00 1.790000000000D+03 0.000000000000D+00
    2.000000000000D+00 0.000000000000D+00-1.024454832077D-08 6.500000000000D+01
    4.680000000000D+05 4.000000000000D+00
18 14  5  2 12  0  0.0 3.167814575136D-04 2.273736754432D-12 0.000000000000D+00
    3.500000000000D+01-2.415625000000D+01 5.422011562831D-09-2.360825130620D+00
   -1.318752765656D-06 1.518016669434D-02 8.018687367439D-06 5.153688297272D+03
    4.752000000000D+05 2.402812242508D-07-1.623350716673D-01-3.725290298462D-09
    9.262491771047D-01 2.016250000000D+02-2.044332190253D+00-8.188912529648D-09
   -2.889406069646D-10 0.000000000000D+00 1.790000000000D+03 0.000000000000D+00
    2.000000000000D+00 0.000000000000D+00-1.117587089539D-08 3.500000000000D+01
    4.680000000000D+05 4.000000000000D+00
21 14  5  2 11 59 44.0-3.587254323065D-04-2.273736754432D-12 0.000000000000D+00
    2.600000000000D+01 1.668750000000D+01 5.480585431239D-09-1.388749863280D+00
    1.328065991402D-06 2.145652216859D-02 4.753470420837D-06 5.153757347107D+03
    4.751840000000D+05 4.023313522339D-07-1.207724294222D+00 3.054738044739D-07
    9.319110577447D-01 2.657500000000D+02-2.031131023777D+00-8.436065681712D-09
    3.532289991199D-10 0.000000000000D+00 1.790000000000D+03 0.000000000000D+00
    2.000000000000D+00 0.000000000000D+00-1.117587089539D-08 2.600000000000D+01
    4.680000000000D+05 4.000000000000D+00
22 14  5  2 12  0  0.0 2.311165444553D-04 2.842170943040D-12 0.000000000000D+00
    4.300000000000D+01-2.293750000000D+01 5.506300788101D-09-2.915761806829D+00
   -1.320615410805D-06 7.141424226575D-03 8.620321750641D-06 5.153726909637D+03
    4.752000000000D+05 1.229345798492D-07-1.604019336815D-01-1.322478055954D-07
    9.240229303154D-01 1.935312500000D+02-2.062719303304D+00-8.333561411997D-09
   -4.164459180726D-10 0.000000000000D+00 1.790000000000D+03 0.000000000000D+00
    2.000000000000D+00 0.000000000000D+00-1.722946763039D-08 4.300000000000D+01
    4.680000000000D+05 4.000000000000D+00
